COSMOS 1812             
1 17295U 87003A   26061.93981991  .01654639 -12116-5  76311-3 0  9998
2 17295  82.4723 203.3427 0007365 288.5135  71.5354 16.21806434143396
IRIDIUM 51              
1 25262U 98018A   26061.94069353  .00616917  16417-3  13108-2 0  9994
2 25262  86.3541 284.1966 0018268 311.9553  48.0174 15.98419692487270
CZ-2D DEB               
1 31409U 05024J   26060.90543068  .00239460  23346-4  72484-3 0  9991
2 31409  97.1482 103.0739 0004089 145.2826 214.8716 15.92111318117181
ZIYUAN 3-01 (ZY 3-01)   
1 38046U 12001A   26061.93266613  .00406129  69231-4  95462-3 0  9992
2 38046  97.1547 136.4272 0001604 245.6421 114.4688 15.96890074787627
HUMSAT-D                
1 39433U 13066T   26061.56297787  .00877160  35625-3  19629-2 0  9996
2 39433  97.4841  73.9995 0006834 161.4567 198.6960 15.97804823670324
H-2A DEB                
1 43675U 18084E   26061.92604154  .01033094  51029-3  23735-2 0  9994
2 43675  98.0076 277.6362 0003253 302.7137  57.3824 15.97396728402042
SPACEBEE-7              
1 43816U 18099BL  26061.75586284  .01193306  78424-3  19892-2 0  9991
2 43816  97.4408 148.0919 0007821 270.3555  89.6828 16.03076494398105
STARLINK-1112           
1 44925U 20001M   26062.01736829  .00693267  24760-3  97397-3 0  9992
2 44925  53.0345 275.7139 0004134 260.1442  99.9123 16.05219074340253
STARLINK-1210           
1 45207U 20012AF  26061.92582021  .03202188  12006-4  86752-3 0  9995
2 45207  53.0007 293.3318 0006635 252.6321 107.3994 16.27375304335838
STARLINK-1294           
1 45551U 20025W   26062.09590104  .12534528  12493-4  33071-3 0  9993
2 45551  53.0150   7.4359 0003065 236.3782 123.6975 16.45728679325906
STARLINK-1484           
1 45756U 20038AC  26062.00002315  .00430883  87439-4  97351-3 0  9996
2 45756  52.9989  91.1702 0006913  33.4011 186.0862 15.97036987  6026
STARLINK-1601           
1 46120U 20057D   26061.92011624  .02747533  11881-4  11060-2 0  9991
2 46120  53.0307 289.3063 0006756 251.0894 108.9413 16.22757357307132
STARLINK-1710           
1 46330U 20062F   26062.01499503  .06650806  12154-4  96690-3 0  9994
2 46330  53.0177 310.7119 0006436 242.9176 117.1211 16.33819389304656
STARLINK-1723           
1 46333U 20062J   26062.21362058  .01772112  28605-2  13241-2 0  9999
2 46333  53.0369 355.4817 0006073 197.2611 162.8219 16.15399890304033
STARLINK-1738           
1 46336U 20062M   26062.00002315  .00700261  23054-3  14098-2 0  9996
2 46336  53.0290 314.9763 0005338 132.1101 176.2007 15.99100441  6007
STARLINK-1750           
1 46337U 20062N   26062.16153012  .11935114  12416-4  49361-3 0  9997
2 46337  53.0217 323.3082 0005978 245.5839 114.4585 16.43407008304489
